<?xml version="1.0" encoding="UTF-8" standalone="yes"?>
<ndm>
    <oem id="CCSDS_OEM_VERS" version="2.0">
        <header>
            <CREATION_DATE>2022-045T23:19:00.431Z</CREATION_DATE>
            <ORIGINATOR>JSC</ORIGINATOR>
        </header>
        <body>
            <segment>
                <metadata>
                    <OBJECT_NAME>ISS</OBJECT_NAME>
                    <OBJECT_ID>1998-067-A</OBJECT_ID>
                    <CENTER_NAME>EARTH</CENTER_NAME>
                    <REF_FRAME>EME2000</REF_FRAME>
                    <TIME_SYSTEM>UTC</TIME_SYSTEM>
                    <START_TIME>2022-045T12:00:00.000Z</START_TIME>
                    <STOP_TIME>2022-060T12:00:00.000Z</STOP_TIME>
                </metadata>
                <data>
                    <COMMENT>Units are in kg and m^2</COMMENT>
                    <COMMENT>MASS=445386.00</COMMENT>
                    <COMMENT>DRAG_AREA=1439.70</COMMENT>
                    <COMMENT>DRAG_COEFF=2.80</COMMENT>
                    <COMMENT>SOLAR_RAD_AREA=0.00</COMMENT>
                    <COMMENT>SOLAR_RAD_COEFF=0.00</COMMENT>
                    <COMMENT>Orbits start at the ascending node epoch </COMMENT>
                    <COMMENT>ISS first asc. node: EPOCH = 2022-02-14T12:52:59.575 $ ORBIT = 615 $ LAN(DEG) = -113.78912</COMMENT>
                    <COMMENT>ISS last asc. node : EPOCH = 2022-03-01T11:54:49.343 $ ORBIT = 847 $ LAN(DEG) = 171.92181</COMMENT>
                    <COMMENT>Begin sequence of events</COMMENT>
                    <COMMENT>TRAJECTORY EVENT SUMMARY:</COMMENT>
                    <COMMENT></COMMENT>
                    <COMMENT>|       EVENT        |       TIG        | ORB |   DV    |   HA    |   HP    |</COMMENT>
                    <COMMENT>|                    |       GMT        |     |   M/S   |   KM    |   KM    |</COMMENT>
                    <COMMENT>|                    |                  |     |  (F/S)  |  (NM)   |  (NM)   |</COMMENT>
                    <COMMENT>=============================================================================</COMMENT>
                    <COMMENT> 80P Launch            046:04:25:39.000             0.0     426.3     408.0</COMMENT>
                    <COMMENT>                                                   (0.0)   (230.2)   (220.3)</COMMENT>
                    <COMMENT></COMMENT>
                    <COMMENT> 80P Arrivals          048:07:06:29.000             0.0     425.7     408.2</COMMENT>
                    <COMMENT>                                                   (0.0)   (229.8)   (220.4)</COMMENT>
                    <COMMENT></COMMENT>
                    <COMMENT> NG-17 Launch          050:17:39:59.000             0.0     425.5     408.4</COMMENT>
                    <COMMENT>                                                   (0.0)   (229.7)   (220.5)</COMMENT>
                    <COMMENT></COMMENT>
                    <COMMENT> NG-17 Arrival         052:09:35:00.000             0.0     424.9     408.7</COMMENT>
                    <COMMENT>                                                   (0.0)   (229.4)   (220.7)</COMMENT>
                    <COMMENT></COMMENT>
                    <COMMENT> GMT057 Reboost        057:01:37:00.000             0.5     423.9     409.2</COMMENT>
                    <COMMENT>                                                   (1.6)   (228.9)   (220.9)</COMMENT>
                    <COMMENT></COMMENT>
                    <COMMENT>=============================================================================</COMMENT>
                    <COMMENT>End sequence of events</COMMENT>
                    <stateVector>
                        <EPOCH>2022-054T12:48:00.000Z</EPOCH>
                        <X units="km">6719.0017119962704</X>
                        <Y units="km">551.50190776549402</Y>
                        <Z units="km">-837.12014398275801</Z>
                        <X_DOT units="km/s">-1.11889063436341</X_DOT>
                        <Y_DOT units="km/s">4.71490245046241</Y_DOT>
                        <Z_DOT units="km/s">-5.9381237970956997</Z_DOT>
                    </stateVector>
                    <stateVector>
                        <EPOCH>2022-054T12:52:00.000Z</EPOCH>
                        <X units="km">6208.9938932688701</X>
                        <Y units="km">1649.2169056067901</Y>
                        <Z units="km">-2214.3031668508202</Z>
                        <X_DOT units="km/s">-3.1047091218749601</X_DOT>
                        <Y_DOT units="km/s">4.3768762704295501</Y_DOT>
                        <Z_DOT units="km/s">-5.4681457000937499</Z_DOT>
                    </stateVector>
                    <stateVector>
                        <EPOCH>2022-054T12:56:00.000Z</EPOCH>
                        <X units="km">5247.10724753467</X>
                        <Y units="km">2626.9237556539101</Y>
                        <Z units="km">-3429.9146117712398</Z>
                        <X_DOT units="km/s">-4.8615603073985296</X_DOT>
                        <Y_DOT units="km/s">3.7211458002829101</Y_DOT>
                        <Z_DOT units="km/s">-4.6001970196114801</Z_DOT>
                    </stateVector>
                    <stateVector>
                        <EPOCH>2022-054T13:00:00.000Z</EPOCH>
                        <X units="km">3903.9986417744299</X>
                        <Y units="km">3413.8039172569602</Y>
                        <Z units="km">-4395.6710124441197</Z>
                        <X_DOT units="km/s">-6.2623921260510196</X_DOT>
                        <Y_DOT units="km/s">2.79651119121174</Y_DOT>
                        <Z_DOT units="km/s">-3.3989546091255498</Z_DOT>
                    </stateVector>
                    <stateVector>
                        <EPOCH>2022-054T13:04:00.000Z</EPOCH>
                        <X units="km">2277.7413738366799</X>
                        <Y units="km">3953.1235839708702</Y>
                        <Z units="km">-5041.7673650500001</Z>
                        <X_DOT units="km/s">-7.2070779937914802</X_DOT>
                        <Y_DOT units="km/s">1.6707667711666301</Y_DOT>
                        <Z_DOT units="km/s">-1.9527014992735701</Z_DOT>
                    </stateVector>
                    <stateVector>
                        <EPOCH>2022-054T13:08:00.000Z</EPOCH>
                        <X units="km">486.52542571715799</X>
                        <Y units="km">4206.1877941722996</Y>
                        <Z units="km">-5321.7461572288203</Z>
                        <X_DOT units="km/s">-7.62896726451718</X_DOT>
                        <Y_DOT units="km/s">0.42548966044692998</Y_DOT>
                        <Z_DOT units="km/s">-0.36649194256862999</Z_DOT>
                    </stateVector>
                    <stateVector>
                        <EPOCH>2022-054T13:12:00.000Z</EPOCH>
                        <X units="km">-1339.8924084550099</X>
                        <Y units="km">4154.9516278764604</Y>
                        <Z units="km">-5215.6285181986304</Z>
                        <X_DOT units="km/s">-7.4987798030453598</X_DOT>
                        <Y_DOT units="km/s">-0.84981271563266003</Y_DOT>
                        <Z_DOT units="km/s">1.2453562782248</Z_DOT>
                    </stateVector>
                    <stateVector>
                        <EPOCH>2022-054T13:16:00.000Z</EPOCH>
                        <X units="km">-3069.3900688629901</X>
                        <Y units="km">3803.19464628479</Y>
                        <Z units="km">-4731.2029093662404</Z>
                        <X_DOT units="km/s">-6.82613583593636</X_DOT>
                        <Y_DOT units="km/s">-2.0637937068879602</Y_DOT>
                        <Z_DOT units="km/s">2.7670651169362102</Z_DOT>
                    </stateVector>
                    <stateVector>
                        <EPOCH>2022-054T13:20:00.000Z</EPOCH>
                        <X units="km">-4576.7687707719797</X>
                        <Y units="km">3176.2363026264102</Y>
                        <Z units="km">-3903.4495754540499</Z>
                        <X_DOT units="km/s">-5.6588160426393799</X_DOT>
                        <Y_DOT units="km/s">-3.12929221046068</Y_DOT>
                        <Z_DOT units="km/s">4.0890771027026798</Z_DOT>
                    </stateVector>
                    <stateVector>
                        <EPOCH>2022-054T13:24:00.000Z</EPOCH>
                        <X units="km">-5752.6164411250902</X>
                        <Y units="km">2319.22034504054</Y>
                        <Z units="km">-2792.1523353776101</Z>
                        <X_DOT units="km/s">-4.0799462077907602</X_DOT>
                        <Y_DOT units="km/s">-3.96924255210567</Y_DOT>
                        <Z_DOT units="km/s">5.1154529340632502</Z_DOT>
                    </stateVector>
                    <stateVector>
                        <EPOCH>2022-054T13:28:00.000Z</EPOCH>
                        <X units="km">-6511.2240362180401</X>
                        <Y units="km">1294.0114293153399</Y>
                        <Z units="km">-1477.7813622393001</Z>
                        <X_DOT units="km/s">-2.2028555289253502</X_DOT>
                        <Y_DOT units="km/s">-4.5222327910225903</Y_DOT>
                        <Z_DOT units="km/s">5.7708517392729402</Z_DOT>
                    </stateVector>
                    
                </data>
            </segment>
        </body>
    </oem>
</ndm>
